ALOS (DAICHI)           
1 28931U 06002A   25351.73419158  .00001110  00000+0  19545-3 0  9994
2 28931  98.1098 303.1864 0001361 113.5739 246.5610 14.69501788 61443
H-2A R/B                
1 28932U 06002B   25365.28177949  .00015608  00000+0  80854-3 0  9997
2 28932  98.2317 141.5506 0054648 113.8518 246.8453 15.14982030 84076
RESURS-DK 1             
1 29228U 06021A   25365.28541624  .00004720  00000+0  27805-3 0  9992
2 29228  69.9345  53.9056 0007029 243.0224 117.0224 15.12280572 77187
CZ-4B R/B               
1 29507U 06046C   25365.11898595  .00009111  00000+0  46946-3 0  9999
2 29507  97.5718  45.2077 0034732 143.0591 217.3043 15.16079993 49653
CZ-2C R/B               
1 31114U 07010B   25365.31814925  .00000275  00000+0  14493-3 0  9999
2 31114  98.3975 117.0342 0059836 132.3993 228.2270 14.20218462970012
COSMO-SKYMED 1          
1 31598U 07023A   25365.31770126  .00006555  00000+0  59067-3 0  9996
2 31598  97.8830 190.8400 0001074  86.4059 273.7285 14.95920287  4688
COSMOS 2428             
1 31792U 07029A   25365.28735410  .00000354  00000+0  21563-3 0  9992
2 31792  70.9376 346.9365 0004739 357.8293   2.2807 14.12899170954438
SL-16 R/B               
1 31793U 07029B   25365.27574255  .00000264  00000+0  16167-3 0  9994
2 31793  70.9772 316.1929 0001990 269.1163 198.7245 14.14823425955699
KORONAS-FOTON           
1 33504U 09003A   25364.99674821  .00014329  00000+0  33912-3 0  9992
2 33504  82.4308 347.1824 0012969  51.7774 308.4638 15.41565953935158
CZ-2C R/B               
1 37731U 11030B   25364.90546958  .00002630  00000+0  33895-3 0  9993
2 37731  97.8429 318.6129 0051864 212.9631 214.8200 14.80964089779919
H-2A R/B                
1 38341U 12025E   25365.11866767  .00005341  00000+0  49010-3 0  9991
2 38341  98.4620 321.7698 0044888 175.0034 185.1642 14.94580065737970
SHIJIAN-16 (SJ-16)      
1 39358U 13057A   25365.31030356  .00002690  00000+0  26694-3 0  9992
2 39358  74.9736 314.5142 0017988 276.7830  83.1311 14.92061172661308
