CCSDS_OMM_VERS = 2.0
CREATION_DATE  = 
ORIGINATOR     = 

OBJECT_NAME    = ALOS (DAICHI)
OBJECT_ID      = 2006-002A
CENTER_NAME    = EARTH
REF_FRAME      = TEME
TIME_SYSTEM    = UTC
MEAN_ELEMENT_THEORY = SGP/SGP4

EPOCH          = 2025-12-17T17:37:14.152512
MEAN_MOTION    = 14.69501788
ECCENTRICITY   = .00013612
INCLINATION    = 98.1098
RA_OF_ASC_NODE = 303.1864
ARG_OF_PERICENTER = 113.5739
MEAN_ANOMALY   = 246.5610

EPHEMERIS_TYPE = 0
CLASSIFICATION_TYPE = U
NORAD_CAT_ID   = 28931
ELEMENT_SET_NO = 999
REV_AT_EPOCH   = 6144
BSTAR          = .19545051E-3
MEAN_MOTION_DOT = .111E-4
MEAN_MOTION_DDOT = 0

CCSDS_OMM_VERS = 2.0
CREATION_DATE  = 
ORIGINATOR     = 

OBJECT_NAME    = H-2A R/B
OBJECT_ID      = 2006-002B
CENTER_NAME    = EARTH
REF_FRAME      = TEME
TIME_SYSTEM    = UTC
MEAN_ELEMENT_THEORY = SGP/SGP4

EPOCH          = 2025-12-31T06:45:45.747936
MEAN_MOTION    = 15.14982030
ECCENTRICITY   = .00546487
INCLINATION    = 98.2317
RA_OF_ASC_NODE = 141.5506
ARG_OF_PERICENTER = 113.8518
MEAN_ANOMALY   = 246.8453

EPHEMERIS_TYPE = 0
CLASSIFICATION_TYPE = U
NORAD_CAT_ID   = 28932
ELEMENT_SET_NO = 999
REV_AT_EPOCH   = 8407
BSTAR          = .80853531E-3
MEAN_MOTION_DOT = .15608E-3
MEAN_MOTION_DDOT = 0

CCSDS_OMM_VERS = 2.0
CREATION_DATE  = 
ORIGINATOR     = 

OBJECT_NAME    = RESURS-DK 1
OBJECT_ID      = 2006-021A
CENTER_NAME    = EARTH
REF_FRAME      = TEME
TIME_SYSTEM    = UTC
MEAN_ELEMENT_THEORY = SGP/SGP4

EPOCH          = 2025-12-31T06:50:59.963136
MEAN_MOTION    = 15.12280572
ECCENTRICITY   = .00070295
INCLINATION    = 69.9345
RA_OF_ASC_NODE = 53.9056
ARG_OF_PERICENTER = 243.0224
MEAN_ANOMALY   = 117.0224

EPHEMERIS_TYPE = 0
CLASSIFICATION_TYPE = U
NORAD_CAT_ID   = 29228
ELEMENT_SET_NO = 999
REV_AT_EPOCH   = 7718
BSTAR          = .27804564E-3
MEAN_MOTION_DOT = .472E-4
MEAN_MOTION_DDOT = 0

CCSDS_OMM_VERS = 2.0
CREATION_DATE  = 
ORIGINATOR     = 

OBJECT_NAME    = CZ-4B R/B
OBJECT_ID      = 2006-046C
CENTER_NAME    = EARTH
REF_FRAME      = TEME
TIME_SYSTEM    = UTC
MEAN_ELEMENT_THEORY = SGP/SGP4

EPOCH          = 2025-12-31T02:51:20.386080
MEAN_MOTION    = 15.16079993
ECCENTRICITY   = .00347323
INCLINATION    = 97.5718
RA_OF_ASC_NODE = 45.2077
ARG_OF_PERICENTER = 143.0591
MEAN_ANOMALY   = 217.3043

EPHEMERIS_TYPE = 0
CLASSIFICATION_TYPE = U
NORAD_CAT_ID   = 29507
ELEMENT_SET_NO = 999
REV_AT_EPOCH   = 4965
BSTAR          = .46945829E-3
MEAN_MOTION_DOT = .9111E-4
MEAN_MOTION_DDOT = 0

CCSDS_OMM_VERS = 2.0
CREATION_DATE  = 
ORIGINATOR     = 

OBJECT_NAME    = CZ-2C R/B
OBJECT_ID      = 2007-010B
CENTER_NAME    = EARTH
REF_FRAME      = TEME
TIME_SYSTEM    = UTC
MEAN_ELEMENT_THEORY = SGP/SGP4

EPOCH          = 2025-12-31T07:38:08.095200
MEAN_MOTION    = 14.20218462
ECCENTRICITY   = .00598363
INCLINATION    = 98.3975
RA_OF_ASC_NODE = 117.0342
ARG_OF_PERICENTER = 132.3993
MEAN_ANOMALY   = 228.2270

EPHEMERIS_TYPE = 0
CLASSIFICATION_TYPE = U
NORAD_CAT_ID   = 31114
ELEMENT_SET_NO = 999
REV_AT_EPOCH   = 97001
BSTAR          = .1449283E-3
MEAN_MOTION_DOT = .275E-5
MEAN_MOTION_DDOT = 0

CCSDS_OMM_VERS = 2.0
CREATION_DATE  = 
ORIGINATOR     = 

OBJECT_NAME    = COSMO-SKYMED 1
OBJECT_ID      = 2007-023A
CENTER_NAME    = EARTH
REF_FRAME      = TEME
TIME_SYSTEM    = UTC
MEAN_ELEMENT_THEORY = SGP/SGP4

EPOCH          = 2025-12-31T07:37:29.388864
MEAN_MOTION    = 14.95920287
ECCENTRICITY   = .0001074
INCLINATION    = 97.8830
RA_OF_ASC_NODE = 190.8400
ARG_OF_PERICENTER = 86.4059
MEAN_ANOMALY   = 273.7285

EPHEMERIS_TYPE = 0
CLASSIFICATION_TYPE = U
NORAD_CAT_ID   = 31598
ELEMENT_SET_NO = 999
REV_AT_EPOCH   = 468
BSTAR          = .59067112E-3
MEAN_MOTION_DOT = .6555E-4
MEAN_MOTION_DDOT = 0

CCSDS_OMM_VERS = 2.0
CREATION_DATE  = 
ORIGINATOR     = 

OBJECT_NAME    = COSMOS 2428
OBJECT_ID      = 2007-029A
CENTER_NAME    = EARTH
REF_FRAME      = TEME
TIME_SYSTEM    = UTC
MEAN_ELEMENT_THEORY = SGP/SGP4

EPOCH          = 2025-12-31T06:53:47.394240
MEAN_MOTION    = 14.12899170
ECCENTRICITY   = .00047395
INCLINATION    = 70.9376
RA_OF_ASC_NODE = 346.9365
ARG_OF_PERICENTER = 357.8293
MEAN_ANOMALY   = 2.2807

EPHEMERIS_TYPE = 0
CLASSIFICATION_TYPE = U
NORAD_CAT_ID   = 31792
ELEMENT_SET_NO = 999
REV_AT_EPOCH   = 95443
BSTAR          = .21562892E-3
MEAN_MOTION_DOT = .354E-5
MEAN_MOTION_DDOT = 0

CCSDS_OMM_VERS = 2.0
CREATION_DATE  = 
ORIGINATOR     = 

OBJECT_NAME    = SL-16 R/B
OBJECT_ID      = 2007-029B
CENTER_NAME    = EARTH
REF_FRAME      = TEME
TIME_SYSTEM    = UTC
MEAN_ELEMENT_THEORY = SGP/SGP4

EPOCH          = 2025-12-31T06:37:04.156320
MEAN_MOTION    = 14.14823425
ECCENTRICITY   = .00019909
INCLINATION    = 70.9772
RA_OF_ASC_NODE = 316.1929
ARG_OF_PERICENTER = 269.1163
MEAN_ANOMALY   = 198.7245

EPHEMERIS_TYPE = 0
CLASSIFICATION_TYPE = U
NORAD_CAT_ID   = 31793
ELEMENT_SET_NO = 999
REV_AT_EPOCH   = 95569
BSTAR          = .16167217E-3
MEAN_MOTION_DOT = .264E-5
MEAN_MOTION_DDOT = 0

CCSDS_OMM_VERS = 2.0
CREATION_DATE  = 
ORIGINATOR     = 

OBJECT_NAME    = KORONAS-FOTON
OBJECT_ID      = 2009-003A
CENTER_NAME    = EARTH
REF_FRAME      = TEME
TIME_SYSTEM    = UTC
MEAN_ELEMENT_THEORY = SGP/SGP4

EPOCH          = 2025-12-30T23:55:19.045344
MEAN_MOTION    = 15.41565953
ECCENTRICITY   = .00129699
INCLINATION    = 82.4308
RA_OF_ASC_NODE = 347.1824
ARG_OF_PERICENTER = 51.7774
MEAN_ANOMALY   = 308.4638

EPHEMERIS_TYPE = 0
CLASSIFICATION_TYPE = U
NORAD_CAT_ID   = 33504
ELEMENT_SET_NO = 999
REV_AT_EPOCH   = 93515
BSTAR          = .33912336E-3
MEAN_MOTION_DOT = .14329E-3
MEAN_MOTION_DDOT = 0

CCSDS_OMM_VERS = 2.0
CREATION_DATE  = 
ORIGINATOR     = 

OBJECT_NAME    = CZ-2C R/B
OBJECT_ID      = 2011-030B
CENTER_NAME    = EARTH
REF_FRAME      = TEME
TIME_SYSTEM    = UTC
MEAN_ELEMENT_THEORY = SGP/SGP4

EPOCH          = 2025-12-30T21:43:52.571712
MEAN_MOTION    = 14.80964089
ECCENTRICITY   = .0051864
INCLINATION    = 97.8429
RA_OF_ASC_NODE = 318.6129
ARG_OF_PERICENTER = 212.9631
MEAN_ANOMALY   = 214.8200

EPHEMERIS_TYPE = 0
CLASSIFICATION_TYPE = U
NORAD_CAT_ID   = 37731
ELEMENT_SET_NO = 999
REV_AT_EPOCH   = 77991
BSTAR          = .33895E-3
MEAN_MOTION_DOT = .263E-4
MEAN_MOTION_DDOT = 0

CCSDS_OMM_VERS = 2.0
CREATION_DATE  = 
ORIGINATOR     = 

OBJECT_NAME    = H-2A R/B
OBJECT_ID      = 2012-025E
CENTER_NAME    = EARTH
REF_FRAME      = TEME
TIME_SYSTEM    = UTC
MEAN_ELEMENT_THEORY = SGP/SGP4

EPOCH          = 2025-12-31T02:50:52.886688
MEAN_MOTION    = 14.94580065
ECCENTRICITY   = .00448885
INCLINATION    = 98.4620
RA_OF_ASC_NODE = 321.7698
ARG_OF_PERICENTER = 175.0034
MEAN_ANOMALY   = 185.1642

EPHEMERIS_TYPE = 0
CLASSIFICATION_TYPE = U
NORAD_CAT_ID   = 38341
ELEMENT_SET_NO = 999
REV_AT_EPOCH   = 73797
BSTAR          = .49009527E-3
MEAN_MOTION_DOT = .5341E-4
MEAN_MOTION_DDOT = 0

CCSDS_OMM_VERS = 2.0
CREATION_DATE  = 
ORIGINATOR     = 

OBJECT_NAME    = SHIJIAN-16 (SJ-16)
OBJECT_ID      = 2013-057A
CENTER_NAME    = EARTH
REF_FRAME      = TEME
TIME_SYSTEM    = UTC
MEAN_ELEMENT_THEORY = SGP/SGP4

EPOCH          = 2025-12-31T07:26:50.227584
MEAN_MOTION    = 14.92061172
ECCENTRICITY   = .00179887
INCLINATION    = 74.9736
RA_OF_ASC_NODE = 314.5142
ARG_OF_PERICENTER = 276.7830
MEAN_ANOMALY   = 83.1311

EPHEMERIS_TYPE = 0
CLASSIFICATION_TYPE = U
NORAD_CAT_ID   = 39358
ELEMENT_SET_NO = 999
REV_AT_EPOCH   = 66130
BSTAR          = .26693845E-3
MEAN_MOTION_DOT = .269E-4
MEAN_MOTION_DDOT = 0

